ORBCOMM-X               
1 21576U 91050C   25330.73580448  .00000433  00000+0  14104-3 0  9990
2 21576  98.3248  33.8729 0004617  65.1403 295.0268 14.43415823805567
ORBCOMM FM01            
1 23545U 95017A   25330.53862443  .00007526  00000+0  73502-3 0  9998
2 23545  69.9635  28.6192 0002414 352.7232   7.3888 14.92752672636714
ORBCOMM FM02            
1 23546U 95017B   25330.62988844  .00012304  00000+0  11521-2 0  9995
2 23546  69.9647  47.1113 0003158  19.8720 340.2559 14.94214913636397
ORBCOMM FM08            
1 25112U 97084A   25330.32190910  .00002070  00000+0  60909-3 0  9992
2 25112  45.0142 309.1942 0007731 337.7154  22.3361 14.46497855464841
ORBCOMM FM10            
1 25113U 97084B   25330.32802873  .00002099  00000+0  62035-3 0  9994
2 25113  45.0155 311.8418 0006787 309.2925  50.7324 14.46255308639982
ORBCOMM FM11            
1 25114U 97084C   25330.15388413  .00002138  00000+0  63456-3 0  9997
2 25114  45.0141 313.6109 0007577 309.7398  50.2785 14.45995360464915
ORBCOMM FM12            
1 25115U 97084D   25330.39044922  .00002021  00000+0  60185-3 0  9995
2 25115  45.0144 312.2087 0006686 307.8324  52.1922 14.46019225464740
ORBCOMM FM09            
1 25116U 97084E   25330.64512084  .00001905  00000+0  57121-3 0  9999
2 25116  45.0158 312.0928 0007897 301.7761  58.2321 14.45868557464986
